{"type": "FeatureCollection", "features": [ {"type": "Feature", "properties": {"norad_id": 43108, "name": "BEIDOU-3 M8 (C28)", "group": "gnss", "lat": 26.295211631081642, "lon": 108.26902508648011, "alt_km": 21533.091414315728, "timestamp": "2025-12-08T21:31:04.911239+00:00", "meta": {"OBJECT_NAME": "BEIDOU-3 M8 (C28)", "OBJECT_ID": "2018-003B", "EPOCH": "2025-12-08T03:21:57.743424", "MEAN_MOTION": 1.86230794, "ECCENTRICITY": 0.00047249, "INCLINATION": 54.4937, "RA_OF_ASC_NODE": 308.9576, "ARG_OF_PERICENTER": 275.4662, "MEAN_ANOMALY": 84.4669, "EPHEMERIS_TYPE": 0, "CLASSIFICATION_TYPE": "U", "NORAD_CAT_ID": 43108, "ELEMENT_SET_NO": 999, "REV_AT_EPOCH": 5380, "BSTAR": 0, "MEAN_MOTION_DOT": -7.3e-07, "MEAN_MOTION_DDOT": 0}, "tle": {"line1": "1 43108U 18003B   25342.14025166 -.00000073  00000+0  00000+0 0  9998", "line2": "2 43108  54.4937 308.9576 0004724 275.4662  84.4669  1.86230794 53800"}}, "geometry": {"type": "Point", "coordinates": [108.26902508648011, 26.295211631081642]}}, {"type": "Feature", "properties": {"norad_id": 43207, "name": "BEIDOU-3 M4 (C22)", "group": "gnss", "lat": -25.29699202126319, "lon": -92.33125378752383, "alt_km": 21542.4170692992, "timestamp": "2025-12-08T21:31:04.911250+00:00", "meta": {"OBJECT_NAME": "BEIDOU-3 M4 (C22)", "OBJECT_ID": "2018-018A", "EPOCH": "2025-12-02T03:19:43.852800", "MEAN_MOTION": 1.86230706, "ECCENTRICITY": 0.00040749, "INCLINATION": 56.4768, "RA_OF_ASC_NODE": 69.6557, "ARG_OF_PERICENTER": 15.1369, "MEAN_ANOMALY": 344.8773, "EPHEMERIS_TYPE": 0, "CLASSIFICATION_TYPE": "U", "NORAD_CAT_ID": 43207, "ELEMENT_SET_NO": 999, "REV_AT_EPOCH": 5307, "BSTAR": 0, "MEAN_MOTION_DOT": -4.5e-07, "MEAN_MOTION_DDOT": 0}, "tle": {"line1": "1 43207U 18018A   25336.13870200 -.00000045  00000+0  00000+0 0  9992", "line2": "2 43207  56.4768  69.6557 0004074  15.1369 344.8773  1.86230706 53076"}}, "geometry": {"type": "Point", "coordinates": [-92.33125378752383, -25.29699202126319]}}, {"type": "Feature", "properties": {"norad_id": 43208, "name": "BEIDOU-3 M3 (C21)", "group": "gnss", "lat": 11.51829016812972, "lon": -118.30521297404471, "alt_km": 21542.25594571146, "timestamp": "2025-12-08T21:31:04.911263+00:00", "meta": {"OBJECT_NAME": "BEIDOU-3 M3 (C21)", "OBJECT_ID": "2018-018B", "EPOCH": "2025-12-03T06:41:57.693408", "MEAN_MOTION": 1.86230862, "ECCENTRICITY": 0.0006282, "INCLINATION": 56.4772, "RA_OF_ASC_NODE": 69.6218, "ARG_OF_PERICENTER": 317.5873, "MEAN_ANOMALY": 42.3668, "EPHEMERIS_TYPE": 0, "CLASSIFICATION_TYPE": "U", "NORAD_CAT_ID": 43208, "ELEMENT_SET_NO": 999, "REV_AT_EPOCH": 5309, "BSTAR": 0, "MEAN_MOTION_DOT": -4.9e-07, "MEAN_MOTION_DDOT": 0}, "tle": {"line1": "1 43208U 18018B   25337.27913997 -.00000049  00000+0  00000+0 0  9994", "line2": "2 43208  56.4772  69.6218 0006282 317.5873  42.3668  1.86230862 53096"}}, "geometry": {"type": "Point", "coordinates": [-118.30521297404471, 11.51829016812972]}}, {"type": "Feature", "properties": {"norad_id": 43245, "name": "BEIDOU-3 M9 (C29)", "group": "gnss", "lat": 17.1570628943376, "lon": -40.635826628531305, "alt_km": 21527.45907721647, "timestamp": "2025-12-08T21:31:04.911277+00:00", "meta": {"OBJECT_NAME": "BEIDOU-3 M9 (C29)", "OBJECT_ID": "2018-029A", "EPOCH": "2025-12-07T06:05:41.943552", "MEAN_MOTION": 1.86227905, "ECCENTRICITY": 0.00016267, "INCLINATION": 54.3707, "RA_OF_ASC_NODE": 306.6586, "ARG_OF_PERICENTER": 277.0016, "MEAN_ANOMALY": 82.965, "EPHEMERIS_TYPE": 0, "CLASSIFICATION_TYPE": "U", "NORAD_CAT_ID": 43245, "ELEMENT_SET_NO": 999, "REV_AT_EPOCH": 5232, "BSTAR": 0, "MEAN_MOTION_DOT": -7e-07, "MEAN_MOTION_DDOT": 0}, "tle": {"line1": "1 43245U 18029A   25341.25395768 -.00000070  00000+0  00000+0 0  9994", "line2": "2 43245  54.3707 306.6586 0001626 277.0016  82.9650  1.86227905 52320"}}, "geometry": {"type": "Point", "coordinates": [-40.635826628531305, 17.1570628943376]}}, {"type": "Feature", "properties": {"norad_id": 43246, "name": "BEIDOU-3 M10 (C30)", "group": "gnss", "lat": 47.310068412861746, "lon": -2.404691059590578, "alt_km": 21517.684343246536, "timestamp": "2025-12-08T21:31:04.911288+00:00", "meta": {"OBJECT_NAME": "BEIDOU-3 M10 (C30)", "OBJECT_ID": "2018-029B", "EPOCH": "2025-12-07T04:32:29.911776", "MEAN_MOTION": 1.86228892, "ECCENTRICITY": 0.00040611, "INCLINATION": 54.3683, "RA_OF_ASC_NODE": 306.6886, "ARG_OF_PERICENTER": 0.524, "MEAN_ANOMALY": 359.4613, "EPHEMERIS_TYPE": 0, "CLASSIFICATION_TYPE": "U", "NORAD_CAT_ID": 43246, "ELEMENT_SET_NO": 999, "REV_AT_EPOCH": 5230, "BSTAR": 0, "MEAN_MOTION_DOT": -7e-07, "MEAN_MOTION_DDOT": 0}, "tle": {"line1": "1 43246U 18029B   25341.18923509 -.00000070  00000+0  00000+0 0  9997", "line2": "2 43246  54.3683 306.6886 0004061   0.5240 359.4613  1.86228892 52306"}}, "geometry": {"type": "Point", "coordinates": [-2.404691059590578, 47.310068412861746]}}, {"type": "Feature", "properties": {"norad_id": 43286, "name": "IRNSS-1I", "group": "gnss", "lat": 8.907251138945485, "lon": 93.44398055751849, "alt_km": 35874.468041718, "timestamp": "2025-12-08T21:31:04.911301+00:00", "meta": {"OBJECT_NAME": "IRNSS-1I", "OBJECT_ID": "2018-035A", "EPOCH": "2025-12-07T20:44:32.673984", "MEAN_MOTION": 1.00269085, "ECCENTRICITY": 0.00219299, "INCLINATION": 29.1385, "RA_OF_ASC_NODE": 77.1731, "ARG_OF_PERICENTER": 181.2064, "MEAN_ANOMALY": 184.6969, "EPHEMERIS_TYPE": 0, "CLASSIFICATION_TYPE": "U", "NORAD_CAT_ID": 43286, "ELEMENT_SET_NO": 999, "REV_AT_EPOCH": 2816, "BSTAR": 0, "MEAN_MOTION_DOT": 7.4e-07, "MEAN_MOTION_DDOT": 0}, "tle": {"line1": "1 43286U 18035A   25341.86426706  .00000074  00000+0  00000+0 0  9993", "line2": "2 43286  29.1385  77.1731 0021929 181.2064 184.6969  1.00269085 28165"}}, "geometry": {"type": "Point", "coordinates": [93.44398055751849, 8.907251138945485]}}, {"type": "Feature", "properties": {"norad_id": 43508, "name": "COSMOS 2527 (756)", "group": "gnss", "lat": -61.35618851925594, "lon": -43.148994243607646, "alt_km": 19116.860341796728, "timestamp": "2025-12-08T21:31:04.911315+00:00", "meta": {"OBJECT_NAME": "COSMOS 2527 (756)", "OBJECT_ID": "2018-053A", "EPOCH": "2025-12-08T13:33:02.442240", "MEAN_MOTION": 2.1310206, "ECCENTRICITY": 0.00087559, "INCLINATION": 65.4701, "RA_OF_ASC_NODE": 80.2713, "ARG_OF_PERICENTER": 225.5022, "MEAN_ANOMALY": 134.4409, "EPHEMERIS_TYPE": 0, "CLASSIFICATION_TYPE": "U", "NORAD_CAT_ID": 43508, "ELEMENT_SET_NO": 999, "REV_AT_EPOCH": 5821, "BSTAR": 0, "MEAN_MOTION_DOT": -1e-07, "MEAN_MOTION_DDOT": 0}, "tle": {"line1": "1 43508U 18053A   25342.56461160 -.00000010  00000+0  00000+0 0  9992", "line2": "2 43508  65.4701  80.2713 0008755 225.5022 134.4409  2.13102060 58215"}}, "geometry": {"type": "Point", "coordinates": [-43.148994243607646, -61.35618851925594]}}, {"type": "Feature", "properties": {"norad_id": 43539, "name": "BEIDOU-2 IGSO-7 (C16)", "group": "gnss", "lat": -9.764111188506915, "lon": 157.80743356441465, "alt_km": 35939.99358959971, "timestamp": "2025-12-08T21:31:04.911326+00:00", "meta": {"OBJECT_NAME": "BEIDOU-2 IGSO-7 (C16)", "OBJECT_ID": "2018-057A", "EPOCH": "2025-12-08T10:41:53.941344", "MEAN_MOTION": 1.00258189, "ECCENTRICITY": 0.00925204, "INCLINATION": 55.1743, "RA_OF_ASC_NODE": 164.7087, "ARG_OF_PERICENTER": 235.2301, "MEAN_ANOMALY": 309.1425, "EPHEMERIS_TYPE": 0, "CLASSIFICATION_TYPE": "U", "NORAD_CAT_ID": 43539, "ELEMENT_SET_NO": 999, "REV_AT_EPOCH": 2721, "BSTAR": 0, "MEAN_MOTION_DOT": -7e-07, "MEAN_MOTION_DDOT": 0}, "tle": {"line1": "1 43539U 18057A   25342.44576321 -.00000070  00000+0  00000+0 0  9999", "line2": "2 43539  55.1743 164.7087 0092520 235.2301 309.1425  1.00258189 27218"}}, "geometry": {"type": "Point", "coordinates": [157.80743356441465, -9.764111188506915]}}, {"type": "Feature", "properties": {"norad_id": 43564, "name": "GSAT0221 (GALILEO 25)", "group": "gnss", "lat": -52.37777945644349, "lon": -69.78882240923723, "alt_km": 23208.117604920302, "timestamp": "2025-12-08T21:31:04.911338+00:00", "meta": {"OBJECT_NAME": "GSAT0221 (GALILEO 25)", "OBJECT_ID": "2018-060A", "EPOCH": "2025-12-06T15:57:28.986048", "MEAN_MOTION": 1.70475679, "ECCENTRICITY": 0.00066883, "INCLINATION": 57.2291, "RA_OF_ASC_NODE": 346.9817, "ARG_OF_PERICENTER": 281.5609, "MEAN_ANOMALY": 78.3858, "EPHEMERIS_TYPE": 0, "CLASSIFICATION_TYPE": "U", "NORAD_CAT_ID": 43564, "ELEMENT_SET_NO": 999, "REV_AT_EPOCH": 4588, "BSTAR": 0, "MEAN_MOTION_DOT": -8.1e-07, "MEAN_MOTION_DDOT": 0}, "tle": {"line1": "1 43564U 18060A   25340.66491882 -.00000081  00000+0  00000+0 0  9993", "line2": "2 43564  57.2291 346.9817 0006688 281.5609  78.3858  1.70475679 45887"}}, "geometry": {"type": "Point", "coordinates": [-69.78882240923723, -52.37777945644349]}}, {"type": "Feature", "properties": {"norad_id": 43565, "name": "GSAT0222 (GALILEO 26)", "group": "gnss", "lat": 20.87202236579855, "lon": 152.70424979512657, "alt_km": 23225.006091833242, "timestamp": "2025-12-08T21:31:04.911349+00:00", "meta": {"OBJECT_NAME": "GSAT0222 (GALILEO 26)", "OBJECT_ID": "2018-060B", "EPOCH": "2025-12-08T01:22:40.600704", "MEAN_MOTION": 1.70475416, "ECCENTRICITY": 0.00061718, "INCLINATION": 57.2323, "RA_OF_ASC_NODE": 346.9471, "ARG_OF_PERICENTER": 262.1497, "MEAN_ANOMALY": 97.7982, "EPHEMERIS_TYPE": 0, "CLASSIFICATION_TYPE": "U", "NORAD_CAT_ID": 43565, "ELEMENT_SET_NO": 999, "REV_AT_EPOCH": 4595, "BSTAR": 0, "MEAN_MOTION_DOT": -8.5e-07, "MEAN_MOTION_DDOT": 0}, "tle": {"line1": "1 43565U 18060B   25342.05741436 -.00000085  00000+0  00000+0 0  9996", "line2": "2 43565  57.2323 346.9471 0006171 262.1497  97.7982  1.70475416 45957"}}, "geometry": {"type": "Point", "coordinates": [152.70424979512657, 20.87202236579855]}}]}